LANDSAT 9               
1 49260U 21088A   23194.73745939  .00000467  00000+0  11368-3 0  9994
2 49260  98.2288 264.3089 0001190  99.8498 260.2835 14.57107377 95259
